NORAD_CAT_ID,OBJECT_NAME,OBJECT_TYPE,EPOCH,MEAN_MOTION,ECCENTRICITY,INCLINATION,RA_OF_ASC_NODE,ARG_OF_PERICENTER,MEAN_ANOMALY,BSTAR,MEAN_MOTION_DOT,MEAN_MOTION_DDOT,TLE_LINE0,TLE_LINE1,TLE_LINE2,SEMIMAJOR_AXIS,PERIOD,APOGEE,PERIGEE,DECAYED
56815.0,STARLINK-6057,PAYLOAD,2024-03-18 21:49:17,14.98333912,0.000248,70.0024,1.9292,252.0346,108.0543,3.1004e-05,2.77e-06,0.0,0 STARLINK-6057,1 56815U 23078BA  24078.90923514  .00000277  00000-0  31004-4 0  9997,2 56815  70.0024   1.9292 0002480 252.0346 108.0543 14.98333912 44719,6950.181,96.107,573.769,570.322,0.0
56815.0,STARLINK-6057,PAYLOAD,2024-03-19 04:13:50,14.98335652,0.0002488,70.0022,1.2555,262.0766,98.011,4.784e-05,4.78e-06,0.0,0 STARLINK-6057,1 56815U 23078BA  24079.17627381  .00000478  00000-0  47840-4 0  9998,2 56815  70.0022   1.2555 0002488 262.0766  98.0110 14.98335652 44752,6950.175,96.107,573.77,570.311,0.0
56815.0,STARLINK-6057,PAYLOAD,2024-03-19 21:51:18,14.98339145,0.0002607,70.002,359.4038,261.4663,98.62,0.00010684,1.182e-05,0.0,0 STARLINK-6057,1 56815U 23078BA  24079.91062660  .00001182  00000-0  10684-3 0  9991,2 56815  70.0020 359.4038 0002607 261.4663  98.6200 14.98339145 45125,6950.165,96.106,573.842,570.218,0.0
56815.0,STARLINK-6057,PAYLOAD,2024-03-20 04:15:50,14.98341784,0.0002579,70.002,358.7306,260.8849,99.2018,0.00013416,1.509e-05,0.0,0 STARLINK-6057,1 56815U 23078BA  24080.17766302  .00001509  00000-0  13416-3 0  9994,2 56815  70.0020 358.7306 0002579 260.8849  99.2018 14.98341784 44903,6950.156,96.106,573.814,570.229,0.0
56815.0,STARLINK-6057,PAYLOAD,2024-03-20 20:17:11,14.98327299,0.0002529,70.0036,357.0529,246.2308,113.8586,-5.7619e-05,-7.8e-06,0.0,0 STARLINK-6057,1 56815U 23078BA  24080.84527563 -.00000780  00000-0 -57619-4 0  9998,2 56815  70.0036 357.0529 0002529 246.2308 113.8586 14.98327299 45260,6950.201,96.107,573.824,570.309,0.0
56815.0,STARLINK-6057,PAYLOAD,2024-03-20 21:53:19,14.98329089,0.0002914,70.0023,356.8828,239.7007,120.3864,-6.2141e-05,-8.34e-06,0.0,0 STARLINK-6057,1 56815U 23078BA  24080.91203366 -.00000834  00000-0 -62141-4 0  9994,2 56815  70.0023 356.8828 0002914 239.7007 120.3864 14.98329089 45010,6950.196,96.107,574.086,570.035,0.0
56815.0,STARLINK-6057,PAYLOAD,2024-03-21 04:17:52,14.98327299,0.000291,70.0019,356.2078,261.588,98.4949,-8.482e-05,-1.105e-05,0.0,0 STARLINK-6057,1 56815U 23078BA  24081.17907683 -.00001105  00000-0 -84820-4 0  9996,2 56815  70.0019 356.2078 0002910 261.5880  98.4949 14.98327299 45058,6950.201,96.107,574.089,570.044,0.0
56815.0,STARLINK-6057,PAYLOAD,2024-03-21 20:19:12,14.98334256,0.0002942,70.0016,354.5236,265.8869,94.1954,-2.8022e-05,-4.27e-06,0.0,0 STARLINK-6057,1 56815U 23078BA  24081.84667157 -.00000427  00000-0 -28022-4 0  9997,2 56815  70.0016 354.5236 0002942 265.8869  94.1954 14.98334256 45411,6950.18,96.107,574.089,570.0,0.0
56815.0,STARLINK-6057,PAYLOAD,2024-03-21 21:55:20,14.98334461,0.000295,70.0015,354.3553,266.0672,94.015,-2.2347e-05,-3.6e-06,0.0,0 STARLINK-6057,1 56815U 23078BA  24081.91343124 -.00000360  00000-0 -22347-4 0  9990,2 56815  70.0015 354.3553 0002950 266.0672  94.0150 14.98334461 45161,6950.179,96.107,574.094,569.994,0.0
56815.0,STARLINK-6057,PAYLOAD,2024-03-22 04:19:51,14.98342823,0.0002814,70.0018,353.6822,264.4851,95.5987,7.3585e-05,7.85e-06,0.0,0 STARLINK-6057,1 56815U 23078BA  24082.18046284  .00000785  00000-0  73585-4 0  9996,2 56815  70.0018 353.6822 0002814 264.4851  95.5987 14.98342823 45463,6950.153,96.106,573.974,570.062,0.0
56815.0,STARLINK-6057,PAYLOAD,2024-03-22 20:21:13,14.98324367,0.0002815,70.0029,351.9991,264.5208,95.563,0.00018225,2.082e-05,0.0,0 STARLINK-6057,1 56815U 23078BA  24082.84807111  .00002082  00000-0  18225-3 0  9994,2 56815  70.0029 351.9991 0002815 264.5208  95.5630 14.98324367 45560,6950.21,96.107,574.032,570.119,0.0
56815.0,STARLINK-6057,PAYLOAD,2024-03-22 21:57:21,14.98324025,0.0002815,70.0029,351.8308,263.484,96.5999,0.00017529,1.999e-05,0.0,0 STARLINK-6057,1 56815U 23078BA  24082.91483167  .00001999  00000-0  17529-3 0  9995,2 56815  70.0029 351.8308 0002815 263.4840  96.5999 14.98324025 45314,6950.211,96.107,574.033,570.12,0.0
56815.0,STARLINK-6057,PAYLOAD,2024-03-23 20:23:14,14.9833228,0.0002728,70.0034,349.4741,251.7824,108.3038,-5.3302e-05,-7.29e-06,0.0,0 STARLINK-6057,1 56815U 23078BA  24083.84947441 -.00000729  00000-0 -53302-4 0  9990,2 56815  70.0034 349.4741 0002728 251.7824 108.3038 14.98332280 45711,6950.186,96.107,573.947,570.155,0.0
56815.0,STARLINK-6057,PAYLOAD,2024-03-23 21:59:22,14.98333053,0.000261,70.0034,349.3059,250.5008,109.5869,-5.0384e-05,-6.94e-06,0.0,0 STARLINK-6057,1 56815U 23078BA  24083.91623386 -.00000694  00000-0 -50384-4 0  9995,2 56815  70.0034 349.3059 0002610 250.5008 109.5869 14.98333053 45469,6950.183,96.107,573.862,570.234,0.0
56815.0,STARLINK-6057,PAYLOAD,2024-03-24 10:48:27,14.98324462,0.0002473,70.0028,347.9602,266.5198,93.5678,9.5729e-05,1.049e-05,0.0,0 STARLINK-6057,1 56815U 23078BA  24084.45031865  .00001049  00000-0  95729-4 0  9995,2 56815  70.0028 347.9602 0002473 266.5198  93.5678 14.98324462 45547,6950.21,96.107,573.794,570.356,0.0
56815.0,STARLINK-6057,PAYLOAD,2024-03-24 20:25:15,14.98331595,0.0002886,70.0013,346.9488,261.8218,98.2614,7.5561e-05,8.09e-06,0.0,0 STARLINK-6057,1 56815U 23078BA  24084.85087554  .00000809  00000-0  75561-4 0  9990,2 56815  70.0013 346.9488 0002886 261.8218  98.2614 14.98331595 45863,6950.188,96.107,574.059,570.047,0.0
56815.0,STARLINK-6057,PAYLOAD,2024-03-24 22:01:23,14.98331091,0.0002868,70.002,346.7817,260.2766,99.8069,7.1925e-05,7.65e-06,0.0,0 STARLINK-6057,1 56815U 23078BA  24084.91763639  .00000765  00000-0  71925-4 0  9993,2 56815  70.0020 346.7817 0002868 260.2766  99.8069 14.98331091 45611,6950.19,96.107,574.048,570.061,0.0
56815.0,STARLINK-6057,PAYLOAD,2024-03-25 20:27:16,14.98333202,0.0002984,70.0011,344.4232,269.2667,90.815,8.8538e-05,9.64e-06,0.0,0 STARLINK-6057,1 56815U 23078BA  24085.85227425  .00000964  00000-0  88538-4 0  9994,2 56815  70.0011 344.4232 0002984 269.2667  90.8150 14.98333202 46018,6950.183,96.107,574.122,569.974,0.0
56815.0,STARLINK-6057,PAYLOAD,2024-03-25 22:03:24,14.98331813,0.0003052,70.0011,344.2547,268.4773,91.6036,8.332e-05,9.01e-06,0.0,0 STARLINK-6057,1 56815U 23078BA  24085.91903523  .00000901  00000-0  83320-4 0  9996,2 56815  70.0011 344.2547 0003052 268.4773  91.6036 14.98331813 45760,6950.187,96.107,574.173,569.931,0.0
56815.0,STARLINK-6057,PAYLOAD,2024-03-26 10:52:29,14.9833042,0.000292,70.0028,342.9078,275.8947,84.1879,8.0284e-07,-8.3e-07,0.0,0 STARLINK-6057,1 56815U 23078BA  24086.45311852 -.00000083  00000-0  80284-6 0  9994,2 56815  70.0028 342.9078 0002920 275.8947  84.1879 14.98330420 45844,6950.192,96.107,574.086,570.027,0.0
56815.0,STARLINK-6057,PAYLOAD,2024-03-26 20:29:19,14.98295802,0.0003697,70.0011,341.8966,274.7168,85.3569,0.00031115,3.618e-05,0.0,0 STARLINK-6057,1 56815U 23078BA  24086.85369599  .00003618  00000-0  31115-3 0  9991,2 56815  70.0011 341.8966 0003697 274.7168  85.3569 14.98295802 46164,6950.299,96.109,574.733,569.594,0.0
56815.0,STARLINK-6057,PAYLOAD,2024-03-26 22:05:25,14.98342631,0.000473,70.0014,341.7281,273.3697,86.6921,-0.00058261,-7.041e-05,0.0,0 STARLINK-6057,1 56815U 23078BA  24086.92043771 -.00007041  00000-0 -58261-3 0  9997,2 56815  70.0014 341.7281 0004730 273.3697  86.6921 14.98342631 45918,6950.154,96.106,575.306,568.731,0.0
56815.0,STARLINK-6057,PAYLOAD,2024-03-27 02:53:51,14.98320116,0.0002676,70.0017,341.2249,265.6137,94.4717,-3.1843e-05,-4.73e-06,0.0,0 STARLINK-6057,1 56815U 23078BA  24087.12073060 -.00000473  00000-0 -31843-4 0  9994,2 56815  70.0017 341.2249 0002676 265.6137  94.4717 14.98320116 46207,6950.223,96.108,573.948,570.229,0.0
56815.0,STARLINK-6057,PAYLOAD,2024-03-27 20:31:19,14.98329903,0.0002505,70.0014,339.3725,259.2323,100.8554,2.7407e-05,2.34e-06,0.0,0 STARLINK-6057,1 56815U 23078BA  24087.85508958  .00000234  00000-0  27407-4 0  9997,2 56815  70.0014 339.3725 0002505 259.2323 100.8554 14.98329903 46314,6950.193,96.107,573.799,570.317,0.0
56815.0,STARLINK-6057,PAYLOAD,2024-03-27 22:07:27,14.98327191,0.0002747,70.0013,339.2051,264.8908,95.1938,2.9532e-05,2.59e-06,0.0,0 STARLINK-6057,1 56815U 23078BA  24087.92185136  .00000259  00000-0  29532-4 0  9992,2 56815  70.0013 339.2051 0002747 264.8908  95.1938 14.98327191 46064,6950.202,96.107,573.976,570.157,0.0
56815.0,STARLINK-6057,PAYLOAD,2024-03-28 09:20:23,14.98337747,0.0003069,70.0005,338.0269,269.7873,90.2934,9.1692e-05,1.001e-05,0.0,0 STARLINK-6057,1 56815U 23078BA  24088.38916355  .00001001  00000-0  91692-4 0  9990,2 56815  70.0005 338.0269 0003069 269.7873  90.2934 14.98337747 46392,6950.169,96.107,574.167,569.901,0.0
56815.0,STARLINK-6057,PAYLOAD,2024-03-28 22:09:27,14.98344466,0.0002682,70.0002,336.6795,273.0976,86.9876,0.00023487,2.712e-05,0.0,0 STARLINK-6057,1 56815U 23078BA  24088.92323476  .00002712  00000-0  23487-3 0  9992,2 56815  70.0002 336.6795 0002682 273.0976  86.9876 14.98344466 46213,6950.148,96.106,573.877,570.149,0.0
56815.0,STARLINK-6057,PAYLOAD,2024-03-29 02:57:51,14.98344937,0.0002701,70.003,336.1755,285.0572,75.0288,0.00043727,5.13e-05,0.0,0 STARLINK-6057,1 56815U 23078BA  24089.12351013  .00005130  00000-0  43727-3 0  9999,2 56815  70.0030 336.1755 0002701 285.0572  75.0288 14.98344937 46503,6950.147,96.106,573.889,570.134,0.0
56815.0,STARLINK-6057,PAYLOAD,2024-03-29 09:22:23,14.98338537,0.0002687,70.0009,335.502,276.2451,83.8402,0.00022374,2.578e-05,0.0,0 STARLINK-6057,1 56815U 23078BA  24089.39055530  .00002578  00000-0  22374-3 0  9991,2 56815  70.0009 335.5020 0002687 276.2451  83.8402 14.98338537 46546,6950.166,96.106,573.899,570.164,0.0
56815.0,STARLINK-6057,PAYLOAD,2024-03-29 22:11:28,14.98338716,0.0002898,70.0006,334.156,275.522,84.5608,5.1798e-05,5.25e-06,0.0,0 STARLINK-6057,1 56815U 23078BA  24089.92463845  .00000525  00000-0  51798-4 0  9995,2 56815  70.0006 334.1560 0002898 275.5220  84.5608 14.98338716 46362,6950.166,96.106,574.045,570.017,0.0
